{"fetched_at":"2026-03-29T02:12:04Z","count":15717,"tles":[{"name":"JILIN-1 GAOFEN 03D18","line1":"1 51844U 22019W   26087.22021007  .00276745  00000+0  12026-2 0  9996","line2":"2 51844  97.3645 180.7984 0000152 122.5897 237.5388 15.84097731227278","category":"Other"}]}