{
  "norad_id": 51844,
  "name": "JILIN-1 GAOFEN 03D18",
  "history": [
    {
      "epoch": "2026-03-28T05:17:06.150048",
      "apogee_km": 318.96844093015716,
      "perigee_km": 318.76458414323497,
      "latitude_deg": 84.87180968520941,
      "longitude_deg": 105.54016671981663,
      "semi_major_axis_km": 6697.003512536696,
      "eccentricity": 1.522e-05,
      "inclination_deg": 97.3645,
      "raan_deg": 180.7984,
      "arg_perigee_deg": 122.5897,
      "mean_anomaly_deg": 237.5388,
      "mean_motion_rev_day": 15.84097731
    }
  ]
}